start=new Date('2023-03-18T00:00:00.000Z').valueOf();
sats=[{"OBJECT_NAME":"STARLINK-3073","DECAY_DATE":null,"COUNTRY_CODE":"US","EPHEMERIS_TYPE":"0","OBJECT_ID":"2021-082F","REV_AT_EPOCH":"8402","SITE":"AFWTR","TLE_LINE1":"1 49135U 21082F   23076.83726602 -.00001339  00000-0 -10444-3 0  9991","PERIAPSIS":"569.911","RA_OF_ASC_NODE":"117.3183","ARG_OF_PERICENTER":"271.1613","EPOCH":"2023-03-17T20:05:39.784128","SEMIMAJOR_AXIS":"6950.185","ELEMENT_SET_NO":"999","BSTAR":"-0.00010444000000","PERIOD":"96.107","ECCENTRICITY":"0.00030780","CENTER_NAME":"EARTH","CLASSIFICATION_TYPE":"U","MEAN_MOTION":"14.98332500","TIME_SYSTEM":"UTC","LAUNCH_DATE":"2021-09-14","GP_ID":"228354589","OBJECT_TYPE":"PAYLOAD","FILE":"3863544","RCS_SIZE":"LARGE","MEAN_ANOMALY":"88.9193","APOAPSIS":"574.189","MEAN_MOTION_DOT":"-0.00001339","REF_FRAME":"TEME","MEAN_MOTION_DDOT":"0.0000000000000","MEAN_ELEMENT_THEORY":"SGP4","NORAD_CAT_ID":"49135","TLE_LINE2":"2 49135  69.9973 117.3183 0003078 271.1613  88.9193 14.98332500 84027","INCLINATION":"69.9973"},{"DECAY_DATE":null,"EPHEMERIS_TYPE":"0","COUNTRY_CODE":"US","OBJECT_NAME":"STARLINK-3084","TLE_LINE1":"1 49136U 21082G   23076.89793833 -.00000529  00000-0 -36555-4 0  9990","SITE":"AFWTR","REV_AT_EPOCH":"8354","OBJECT_ID":"2021-082G","ARG_OF_PERICENTER":"268.4645","RA_OF_ASC_NODE":"137.1666","PERIAPSIS":"569.828","ELEMENT_SET_NO":"999","SEMIMAJOR_AXIS":"6950.203","EPOCH":"2023-03-17T21:33:01.871712","GP_ID":"228354841","LAUNCH_DATE":"2021-09-14","CLASSIFICATION_TYPE":"U","MEAN_MOTION":"14.98326579","TIME_SYSTEM":"UTC","CENTER_NAME":"EARTH","ECCENTRICITY":"0.00032230","PERIOD":"96.107","BSTAR":"-0.00003655500000","FILE":"3863544","OBJECT_TYPE":"PAYLOAD","APOAPSIS":"574.309","MEAN_ANOMALY":"91.6145","RCS_SIZE":"LARGE","INCLINATION":"69.9995","TLE_LINE2":"2 49136  69.9995 137.1666 0003223 268.4645  91.6145 14.98326579 83547","NORAD_CAT_ID":"49136","MEAN_MOTION_DDOT":"0.0000000000000","MEAN_ELEMENT_THEORY":"SGP4","REF_FRAME":"TEME","MEAN_MOTION_DOT":"-0.00000529"},{"LAUNCH_DATE":"2021-09-14","GP_ID":"228355091","MEAN_MOTION":"14.98321408","CLASSIFICATION_TYPE":"U","TIME_SYSTEM":"UTC","PERIOD":"96.108","ECCENTRICITY":"0.00029790","CENTER_NAME":"EARTH","BSTAR":"0.00007982800000","FILE":"3863544","OBJECT_TYPE":"PAYLOAD","APOAPSIS":"574.155","MEAN_ANOMALY":"89.7750","RCS_SIZE":"LARGE","INCLINATION":"69.9995","NORAD_CAT_ID":"49137","TLE_LINE2":"2 49137  69.9995 137.1801 0002979 270.3068  89.7750 14.98321408 83532","MEAN_ELEMENT_THEORY":"SGP4","MEAN_MOTION_DDOT":"0.0000000000000","MEAN_MOTION_DOT":"0.00000859","REF_FRAME":"TEME","DECAY_DATE":null,"EPHEMERIS_TYPE":"0","COUNTRY_CODE":"US","OBJECT_NAME":"STARLINK-3055","TLE_LINE1":"1 49137U 21082H   23076.89316973  .00000859  00000-0  79828-4 0  9991","SITE":"AFWTR","OBJECT_ID":"2021-082H","REV_AT_EPOCH":"8353","RA_OF_ASC_NODE":"137.1801","ARG_OF_PERICENTER":"270.3068","PERIAPSIS":"570.014","ELEMENT_SET_NO":"999","SEMIMAJOR_AXIS":"6950.219","EPOCH":"2023-03-17T21:26:09.864672"},{"CENTER_NAME":"EARTH","ECCENTRICITY":"0.00032230","PERIOD":"96.107","BSTAR":"0.00102410000000","GP_ID":"228354339","LAUNCH_DATE":"2021-09-14","MEAN_MOTION":"14.98332187","CLASSIFICATION_TYPE":"U","TIME_SYSTEM":"UTC","OBJECT_TYPE":"PAYLOAD","FILE":"3863544","RCS_SIZE":"LARGE","APOAPSIS":"574.291","MEAN_ANOMALY":"82.0075","MEAN_MOTION_DDOT":"0.0000000000000","MEAN_ELEMENT_THEORY":"SGP4","REF_FRAME":"TEME","MEAN_MOTION_DOT":"0.00012148","INCLINATION":"70.0016","NORAD_CAT_ID":"49138","TLE_LINE2":"2 49138  70.0016 157.0976 0003223 278.0718  82.0075 14.98332187 83042","EPHEMERIS_TYPE":"0","DECAY_DATE":null,"COUNTRY_CODE":"US","OBJECT_NAME":"STARLINK-3058","REV_AT_EPOCH":"8304","OBJECT_ID":"2021-082J","TLE_LINE1":"1 49138U 21082J   23076.92522964  .00012148  00000-0  10241-2 0  9991","SITE":"AFWTR","PERIAPSIS":"569.811","ARG_OF_PERICENTER":"278.0718","RA_OF_ASC_NODE":"157.0976","EPOCH":"2023-03-17T22:12:19.840896","ELEMENT_SET_NO":"999","SEMIMAJOR_AXIS":"6950.186"},{"DECAY_DATE":null,"COUNTRY_CODE":"US","EPHEMERIS_TYPE":"0","OBJECT_NAME":"STARLINK-3057","OBJECT_ID":"2021-082K","REV_AT_EPOCH":"8401","TLE_LINE1":"1 49139U 21082K   23076.82773170 -.00000986  00000-0 -74827-4 0  9999","SITE":"AFWTR","PERIAPSIS":"570.230","RA_OF_ASC_NODE":"117.3440","ARG_OF_PERICENTER":"256.6519","EPOCH":"2023-03-17T19:51:56.018880","ELEMENT_SET_NO":"999","SEMIMAJOR_AXIS":"6950.202","ECCENTRICITY":"0.00026430","PERIOD":"96.107","CENTER_NAME":"EARTH","BSTAR":"-0.00007482700000","LAUNCH_DATE":"2021-09-14","GP_ID":"228354090","MEAN_MOTION":"14.98327066","CLASSIFICATION_TYPE":"U","TIME_SYSTEM":"UTC","OBJECT_TYPE":"PAYLOAD","FILE":"3863544","RCS_SIZE":"LARGE","APOAPSIS":"573.904","MEAN_ANOMALY":"103.4345","MEAN_ELEMENT_THEORY":"SGP4","MEAN_MOTION_DDOT":"0.0000000000000","MEAN_MOTION_DOT":"-0.00000986","REF_FRAME":"TEME","INCLINATION":"69.9983","TLE_LINE2":"2 49139  69.9983 117.3440 0002643 256.6519 103.4345 14.98327066 84010","NORAD_CAT_ID":"49139"},{"RA_OF_ASC_NODE":"117.3701","ARG_OF_PERICENTER":"273.8195","PERIAPSIS":"569.961","SEMIMAJOR_AXIS":"6950.218","ELEMENT_SET_NO":"999","EPOCH":"2023-03-17T19:38:11.688576","OBJECT_NAME":"STARLINK-3118","DECAY_DATE":null,"EPHEMERIS_TYPE":"0","COUNTRY_CODE":"US","SITE":"AFWTR","TLE_LINE1":"1 49140U 21082L   23076.81819084  .00002369  00000-0  20632-3 0  9994","OBJECT_ID":"2021-082L","REV_AT_EPOCH":"8401","MEAN_ANOMALY":"86.2615","APOAPSIS":"574.205","RCS_SIZE":"LARGE","TLE_LINE2":"2 49140  69.9979 117.3701 0003053 273.8195  86.2615 14.98321794 84014","NORAD_CAT_ID":"49140","INCLINATION":"69.9979","MEAN_MOTION_DOT":"0.00002369","REF_FRAME":"TEME","MEAN_MOTION_DDOT":"0.0000000000000","MEAN_ELEMENT_THEORY":"SGP4","MEAN_MOTION":"14.98321794","CLASSIFICATION_TYPE":"U","TIME_SYSTEM":"UTC","LAUNCH_DATE":"2021-09-14","GP_ID":"228355341","BSTAR":"0.00020632000000","PERIOD":"96.108","ECCENTRICITY":"0.00030530","CENTER_NAME":"EARTH","FILE":"3863544","OBJECT_TYPE":"PAYLOAD"},{"ARG_OF_PERICENTER":"263.6742","RA_OF_ASC_NODE":"157.1124","PERIAPSIS":"570.202","SEMIMAJOR_AXIS":"6950.220","ELEMENT_SET_NO":"999","EPOCH":"2023-03-17T22:05:27.540960","OBJECT_NAME":"STARLINK-3093","COUNTRY_CODE":"US","DECAY_DATE":null,"EPHEMERIS_TYPE":"0","SITE":"AFWTR","TLE_LINE1":"1 49141U 21082M   23076.92045765 -.00000969  00000-0 -73456-4 0  9993","REV_AT_EPOCH":"8424","OBJECT_ID":"2021-082M","MEAN_ANOMALY":"96.4109","APOAPSIS":"573.968","RCS_SIZE":"LARGE","NORAD_CAT_ID":"49141","TLE_LINE2":"2 49141  70.0010 157.1124 0002709 263.6742  96.4109 14.98321323 84241","INCLINATION":"70.0010","REF_FRAME":"TEME","MEAN_MOTION_DOT":"-0.00000969","MEAN_MOTION_DDOT":"0.0000000000000","MEAN_ELEMENT_THEORY":"SGP4","CLASSIFICATION_TYPE":"U","MEAN_MOTION":"14.98321323","TIME_SYSTEM":"UTC","GP_ID":"228355591","LAUNCH_DATE":"2021-09-14","BSTAR":"-0.00007345600000","CENTER_NAME":"EARTH","ECCENTRICITY":"0.00027090","PERIOD":"96.108","FILE":"3863544","OBJECT_TYPE":"PAYLOAD"},{"BSTAR":"-0.00005988600000","CENTER_NAME":"EARTH","ECCENTRICITY":"0.00027430","PERIOD":"96.107","TIME_SYSTEM":"UTC","CLASSIFICATION_TYPE":"U","MEAN_MOTION":"14.98326612","LAUNCH_DATE":"2021-09-14","GP_ID":"228353840","OBJECT_TYPE":"PAYLOAD","FILE":"3863544","RCS_SIZE":"LARGE","MEAN_ANOMALY":"102.8388","APOAPSIS":"573.975","REF_FRAME":"TEME","MEAN_MOTION_DOT":"-0.00000807","MEAN_ELEMENT_THEORY":"SGP4","MEAN_MOTION_DDOT":"0.0000000000000","TLE_LINE2":"2 49142  69.9985 117.3791 0002743 257.2464 102.8388 14.98326612 84018","NORAD_CAT_ID":"49142","INCLINATION":"69.9985","OBJECT_NAME":"STARLINK-3042","DECAY_DATE":null,"EPHEMERIS_TYPE":"0","COUNTRY_CODE":"US","REV_AT_EPOCH":"8401","OBJECT_ID":"2021-082N","SITE":"AFWTR","TLE_LINE1":"1 49142U 21082N   23076.81342670 -.00000807  00000-0 -59886-4 0  9999","PERIAPSIS":"570.162","ARG_OF_PERICENTER":"257.2464","RA_OF_ASC_NODE":"117.3791","EPOCH":"2023-03-17T19:31:20.066880","SEMIMAJOR_AXIS":"6950.203","ELEMENT_SET_NO":"999"},{"FILE":"3863544","OBJECT_TYPE":"PAYLOAD","GP_ID":"228354590","LAUNCH_DATE":"2021-09-14","TIME_SYSTEM":"UTC","CLASSIFICATION_TYPE":"U","MEAN_MOTION":"14.98307243","ECCENTRICITY":"0.00023500","PERIOD":"96.108","CENTER_NAME":"EARTH","BSTAR":"-0.00025362000000","INCLINATION":"70.0021","NORAD_CAT_ID":"49143","TLE_LINE2":"2 49143  70.0021 137.1908 0002350 272.7365  87.3525 14.98307243 84647","MEAN_MOTION_DDOT":"0.0000000000000","MEAN_ELEMENT_THEORY":"SGP4","MEAN_MOTION_DOT":"-0.00003116","REF_FRAME":"TEME","APOAPSIS":"573.762","MEAN_ANOMALY":"87.3525","RCS_SIZE":"LARGE","TLE_LINE1":"1 49143U 21082P   23076.88841627 -.00003116  00000-0 -25362-3 0  9990","SITE":"AFWTR","OBJECT_ID":"2021-082P","REV_AT_EPOCH":"8464","DECAY_DATE":null,"EPHEMERIS_TYPE":"0","COUNTRY_CODE":"US","OBJECT_NAME":"STARLINK-3109","ELEMENT_SET_NO":"999","SEMIMAJOR_AXIS":"6950.263","EPOCH":"2023-03-17T21:19:19.165728","RA_OF_ASC_NODE":"137.1908","ARG_OF_PERICENTER":"272.7365","PERIAPSIS":"570.495"},{"APOAPSIS":"574.129","MEAN_ANOMALY":"101.6671","RCS_SIZE":"LARGE","INCLINATION":"69.9998","TLE_LINE2":"2 49144  69.9998 157.1215 0003136 258.4136 101.6671 14.98365092 83042","NORAD_CAT_ID":"49144","MEAN_ELEMENT_THEORY":"SGP4","MEAN_MOTION_DDOT":"0.0000000000000","MEAN_MOTION_DOT":"-0.00005827","REF_FRAME":"TEME","GP_ID":"228354842","LAUNCH_DATE":"2021-09-14","MEAN_MOTION":"14.98365092","CLASSIFICATION_TYPE":"U","TIME_SYSTEM":"UTC","PERIOD":"96.105","ECCENTRICITY":"0.00031360","CENTER_NAME":"EARTH","BSTAR":"-0.00048053000000","FILE":"3863544","OBJECT_TYPE":"PAYLOAD","RA_OF_ASC_NODE":"157.1215","ARG_OF_PERICENTER":"258.4136","PERIAPSIS":"569.770","ELEMENT_SET_NO":"999","SEMIMAJOR_AXIS":"6950.084","EPOCH":"2023-03-17T21:58:33.932928","COUNTRY_CODE":"US","DECAY_DATE":null,"EPHEMERIS_TYPE":"0","OBJECT_NAME":"STARLINK-3100","TLE_LINE1":"1 49144U 21082Q   23076.91567052 -.00005827  00000-0 -48053-3 0  9995","SITE":"AFWTR","OBJECT_ID":"2021-082Q","REV_AT_EPOCH":"8304"}];
